[{"OBJECT_NAME":"STARLINK-4340","OBJECT_ID":"2022-099AF","EPOCH":"2026-03-09T21:30:59.344416","MEAN_MOTION":15.05648971,"ECCENTRICITY":2.13e-6,"INCLINATION":97.6034,"RA_OF_ASC_NODE":191.4695,"ARG_OF_PERICENTER":120.1148,"MEAN_ANOMALY":240.0081,"EPHEMERIS_TYPE":0,"CLASSIFICATION_TYPE":"U","NORAD_CAT_ID":53494,"ELEMENT_SET_NO":999,"REV_AT_EPOCH":19608,"BSTAR":5.6881355e-5,"MEAN_MOTION_DOT":7.6e-6,"MEAN_MOTION_DDOT":0},{"OBJECT_NAME":"SL-3 DEB","OBJECT_ID":"1983-075D","EPOCH":"2026-03-09T23:36:44.953632","MEAN_MOTION":15.09588045,"ECCENTRICITY":0.00266029,"INCLINATION":97.8881,"RA_OF_ASC_NODE":62.5591,"ARG_OF_PERICENTER":309.2805,"MEAN_ANOMALY":113.3567,"EPHEMERIS_TYPE":0,"CLASSIFICATION_TYPE":"U","NORAD_CAT_ID":14229,"ELEMENT_SET_NO":999,"REV_AT_EPOCH":31646,"BSTAR":0.00023866318,"MEAN_MOTION_DOT":3.795e-5,"MEAN_MOTION_DDOT":0}]
